STARLINK-31692          
1 59577U 24076P   26065.30329214 -.00000041  00000+0  80435-5 0  9995
2 59577  43.0025  28.1941 0001262 264.0306  96.0402 15.27574314105989
STARLINK-31685          
1 59578U 24076Q   26065.26860161  .00001190  00000+0  52784-4 0  9992
2 59578  43.0058  27.9532 0001121 267.5312  92.5411 15.27571517105981
STARLINK-31686          
1 59579U 24076R   26065.86093138  .00000380  00000+0  23321-4 0  9996
2 59579  43.0056  24.6620 0000467 298.0220  62.0584 15.27579620106078
STARLINK-31668          
1 59580U 24076S   26065.26089319 -.00001602  00000+0 -48700-4 0  9996
2 59580  43.0055  27.9026 0001191 283.9679  76.1040 15.27585062105980
STARLINK-31690          
1 59581U 24076T   26065.93659564  .00009073  00000+0  33902-3 0  9991
2 59581  43.0070  24.3681 0001521 247.0662 113.0029 15.27561915106098
STARLINK-31701          
1 59582U 24076U   26065.88668879  .00053788  00000+0  19451-2 0  9999
2 59582  43.0055  24.8549 0001549 246.4083 113.6606 15.27662229105984
STARLINK-31697          
1 59583U 24076V   26065.28579935  .00010335  00000+0  37289-3 0  9999
2 59583  43.0036  28.0835 0001603 238.9169 121.1526 15.28597016105897
STARLINK-31662          
1 59584U 24076W   26065.30458431 -.00000807  00000+0 -19822-4 0  9999
2 59584  43.0029  28.2268 0001387 263.4469  96.6224 15.27576240105983
STARLINK-31702          
1 59585U 24076X   26065.58283234  .00001280  00000+0  56063-4 0  9999
2 59585  43.0041  26.8783 0001392 269.2952  90.7740 15.27571397106023
STARLINK-31704          
1 59586U 24076Y   26066.16670139  .00159940  00000+0  52652-2 0  9994
2 59586  42.9981 338.8941 0006849 226.8271 164.0171 15.30132387  5805
STARLINK-31770          
1 59601U 24080A   26066.03688423  .00001746  00000+0  72961-4 0  9995
2 59601  43.0008  53.1722 0001222 285.6339  74.4378 15.27572068105339
STARLINK-31778          
1 59602U 24080B   26065.38477781  .00000394  00000+0  23861-4 0  9999
2 59602  43.0039  53.4218 0001456 259.7346 100.3341 15.27575150104069
STARLINK-31776          
1 59603U 24080C   26065.96972616  .00002374  00000+0  95806-4 0  9999
2 59603  43.0110  56.9943 0002646 286.8560  73.2002 15.27573482104073
STARLINK-31765          
1 59604U 24080D   26066.00781297  .00001018  00000+0  46553-4 0  9998
2 59604  43.0090  49.5016 0002769 297.2749  62.7821 15.27579824104169
STARLINK-31767          
1 59605U 24080E   26066.02916756  .00001111  00000+0  49923-4 0  9999
2 59605  43.0040  53.1147 0001263 275.4782  84.5926 15.27570083104126
STARLINK-31782          
1 59606U 24080F   26066.04538517  .00001344  00000+0  58363-4 0  9993
2 59606  43.0022  56.6921 0001199 274.9772  85.0943 15.27573208104088
