[{"OBJECT_NAME":"STARLINK-31692","OBJECT_ID":"2024-076P","EPOCH":"2026-03-06T07:16:44.440896","MEAN_MOTION":15.27574314,"ECCENTRICITY":0.00012624,"INCLINATION":43.0025,"RA_OF_ASC_NODE":28.1941,"ARG_OF_PERICENTER":264.0306,"MEAN_ANOMALY":96.0402,"EPHEMERIS_TYPE":0,"CLASSIFICATION_TYPE":"U","NORAD_CAT_ID":59577,"ELEMENT_SET_NO":999,"REV_AT_EPOCH":10598,"BSTAR":8.043472e-6,"MEAN_MOTION_DOT":-4.1e-7,"MEAN_MOTION_DDOT":0},{"OBJECT_NAME":"STARLINK-31685","OBJECT_ID":"2024-076Q","EPOCH":"2026-03-06T06:26:47.179104","MEAN_MOTION":15.27571517,"ECCENTRICITY":0.00011218,"INCLINATION":43.0058,"RA_OF_ASC_NODE":27.9532,"ARG_OF_PERICENTER":267.5312,"MEAN_ANOMALY":92.5411,"EPHEMERIS_TYPE":0,"CLASSIFICATION_TYPE":"U","NORAD_CAT_ID":59578,"ELEMENT_SET_NO":999,"REV_AT_EPOCH":10598,"BSTAR":5.2783742e-5,"MEAN_MOTION_DOT":1.19e-5,"MEAN_MOTION_DDOT":0},{"OBJECT_NAME":"STARLINK-31686","OBJECT_ID":"2024-076R","EPOCH":"2026-03-06T20:39:44.471232","MEAN_MOTION":15.2757962,"ECCENTRICITY":4.67e-5,"INCLINATION":43.0056,"RA_OF_ASC_NODE":24.662,"ARG_OF_PERICENTER":298.022,"MEAN_ANOMALY":62.0584,"EPHEMERIS_TYPE":0,"CLASSIFICATION_TYPE":"U","NORAD_CAT_ID":59579,"ELEMENT_SET_NO":999,"REV_AT_EPOCH":10607,"BSTAR":2.3321e-5,"MEAN_MOTION_DOT":3.8e-6,"MEAN_MOTION_DDOT":0},{"OBJECT_NAME":"STARLINK-31668","OBJECT_ID":"2024-076S","EPOCH":"2026-03-06T06:15:41.171616","MEAN_MOTION":15.27585062,"ECCENTRICITY":0.00011915,"INCLINATION":43.0055,"RA_OF_ASC_NODE":27.9026,"ARG_OF_PERICENTER":283.9679,"MEAN_ANOMALY":76.104,"EPHEMERIS_TYPE":0,"CLASSIFICATION_TYPE":"U","NORAD_CAT_ID":59580,"ELEMENT_SET_NO":999,"REV_AT_EPOCH":10598,"BSTAR":-4.8699764e-5,"MEAN_MOTION_DOT":-1.602e-5,"MEAN_MOTION_DDOT":0},{"OBJECT_NAME":"STARLINK-31690","OBJECT_ID":"2024-076T","EPOCH":"2026-03-06T22:28:41.863296","MEAN_MOTION":15.27561915,"ECCENTRICITY":0.0001521,"INCLINATION":43.007,"RA_OF_ASC_NODE":24.3681,"ARG_OF_PERICENTER":247.0662,"MEAN_ANOMALY":113.0029,"EPHEMERIS_TYPE":0,"CLASSIFICATION_TYPE":"U","NORAD_CAT_ID":59581,"ELEMENT_SET_NO":999,"REV_AT_EPOCH":10609,"BSTAR":0.00033902,"MEAN_MOTION_DOT":9.073e-5,"MEAN_MOTION_DDOT":0},{"OBJECT_NAME":"STARLINK-31701","OBJECT_ID":"2024-076U","EPOCH":"2026-03-06T21:16:49.911456","MEAN_MOTION":15.27662229,"ECCENTRICITY":0.0001549,"INCLINATION":43.0055,"RA_OF_ASC_NODE":24.8549,"ARG_OF_PERICENTER":246.4083,"MEAN_ANOMALY":113.6606,"EPHEMERIS_TYPE":0,"CLASSIFICATION_TYPE":"U","NORAD_CAT_ID":59582,"ELEMENT_SET_NO":999,"REV_AT_EPOCH":10598,"BSTAR":0.0019451,"MEAN_MOTION_DOT":0.00053788,"MEAN_MOTION_DDOT":0},{"OBJECT_NAME":"STARLINK-31697","OBJECT_ID":"2024-076V","EPOCH":"2026-03-06T06:51:33.063840","MEAN_MOTION":15.28597016,"ECCENTRICITY":0.00016039,"INCLINATION":43.0036,"RA_OF_ASC_NODE":28.0835,"ARG_OF_PERICENTER":238.9169,"MEAN_ANOMALY":121.1526,"EPHEMERIS_TYPE":0,"CLASSIFICATION_TYPE":"U","NORAD_CAT_ID":59583,"ELEMENT_SET_NO":999,"REV_AT_EPOCH":10589,"BSTAR":0.00037289269,"MEAN_MOTION_DOT":0.00010335,"MEAN_MOTION_DDOT":0},{"OBJECT_NAME":"STARLINK-31662","OBJECT_ID":"2024-076W","EPOCH":"2026-03-06T07:18:36.084384","MEAN_MOTION":15.2757624,"ECCENTRICITY":0.00013874,"INCLINATION":43.0029,"RA_OF_ASC_NODE":28.2268,"ARG_OF_PERICENTER":263.4469,"MEAN_ANOMALY":96.6224,"EPHEMERIS_TYPE":0,"CLASSIFICATION_TYPE":"U","NORAD_CAT_ID":59584,"ELEMENT_SET_NO":999,"REV_AT_EPOCH":10598,"BSTAR":-1.9821709e-5,"MEAN_MOTION_DOT":-8.07e-6,"MEAN_MOTION_DDOT":0},{"OBJECT_NAME":"STARLINK-31702","OBJECT_ID":"2024-076X","EPOCH":"2026-03-06T13:59:16.714176","MEAN_MOTION":15.27571397,"ECCENTRICITY":0.00013924,"INCLINATION":43.0041,"RA_OF_ASC_NODE":26.8783,"ARG_OF_PERICENTER":269.2952,"MEAN_ANOMALY":90.774,"EPHEMERIS_TYPE":0,"CLASSIFICATION_TYPE":"U","NORAD_CAT_ID":59585,"ELEMENT_SET_NO":999,"REV_AT_EPOCH":10602,"BSTAR":5.6062629e-5,"MEAN_MOTION_DOT":1.28e-5,"MEAN_MOTION_DDOT":0},{"OBJECT_NAME":"STARLINK-31704","OBJECT_ID":"2024-076Y","EPOCH":"2026-03-07T04:00:03.000096","MEAN_MOTION":15.30132387,"ECCENTRICITY":0.0006849,"INCLINATION":42.9981,"RA_OF_ASC_NODE":338.8941,"ARG_OF_PERICENTER":226.8271,"MEAN_ANOMALY":164.0171,"EPHEMERIS_TYPE":0,"CLASSIFICATION_TYPE":"U","NORAD_CAT_ID":59586,"ELEMENT_SET_NO":999,"REV_AT_EPOCH":580,"BSTAR":0.0052652,"MEAN_MOTION_DOT":0.0015994,"MEAN_MOTION_DDOT":0},{"OBJECT_NAME":"STARLINK-31770","OBJECT_ID":"2024-080A","EPOCH":"2026-03-07T00:53:06.797472","MEAN_MOTION":15.27572068,"ECCENTRICITY":0.0001222,"INCLINATION":43.0008,"RA_OF_ASC_NODE":53.1722,"ARG_OF_PERICENTER":285.6339,"MEAN_ANOMALY":74.4378,"EPHEMERIS_TYPE":0,"CLASSIFICATION_TYPE":"U","NORAD_CAT_ID":59601,"ELEMENT_SET_NO":999,"REV_AT_EPOCH":10533,"BSTAR":7.2961e-5,"MEAN_MOTION_DOT":1.746e-5,"MEAN_MOTION_DDOT":0},{"OBJECT_NAME":"STARLINK-31778","OBJECT_ID":"2024-080B","EPOCH":"2026-03-06T09:14:04.802784","MEAN_MOTION":15.2757515,"ECCENTRICITY":0.00014562,"INCLINATION":43.0039,"RA_OF_ASC_NODE":53.4218,"ARG_OF_PERICENTER":259.7346,"MEAN_ANOMALY":100.3341,"EPHEMERIS_TYPE":0,"CLASSIFICATION_TYPE":"U","NORAD_CAT_ID":59602,"ELEMENT_SET_NO":999,"REV_AT_EPOCH":10406,"BSTAR":2.3861436e-5,"MEAN_MOTION_DOT":3.94e-6,"MEAN_MOTION_DDOT":0},{"OBJECT_NAME":"STARLINK-31776","OBJECT_ID":"2024-080C","EPOCH":"2026-03-06T23:16:24.340224","MEAN_MOTION":15.27573482,"ECCENTRICITY":0.0002646,"INCLINATION":43.011,"RA_OF_ASC_NODE":56.9943,"ARG_OF_PERICENTER":286.856,"MEAN_ANOMALY":73.2002,"EPHEMERIS_TYPE":0,"CLASSIFICATION_TYPE":"U","NORAD_CAT_ID":59603,"ELEMENT_SET_NO":999,"REV_AT_EPOCH":10407,"BSTAR":9.5806e-5,"MEAN_MOTION_DOT":2.374e-5,"MEAN_MOTION_DDOT":0},{"OBJECT_NAME":"STARLINK-31765","OBJECT_ID":"2024-080D","EPOCH":"2026-03-07T00:11:15.040608","MEAN_MOTION":15.27579824,"ECCENTRICITY":0.0002769,"INCLINATION":43.009,"RA_OF_ASC_NODE":49.5016,"ARG_OF_PERICENTER":297.2749,"MEAN_ANOMALY":62.7821,"EPHEMERIS_TYPE":0,"CLASSIFICATION_TYPE":"U","NORAD_CAT_ID":59604,"ELEMENT_SET_NO":999,"REV_AT_EPOCH":10416,"BSTAR":4.6553e-5,"MEAN_MOTION_DOT":1.018e-5,"MEAN_MOTION_DDOT":0},{"OBJECT_NAME":"STARLINK-31767","OBJECT_ID":"2024-080E","EPOCH":"2026-03-07T00:42:00.077184","MEAN_MOTION":15.27570083,"ECCENTRICITY":0.0001263,"INCLINATION":43.004,"RA_OF_ASC_NODE":53.1147,"ARG_OF_PERICENTER":275.4782,"MEAN_ANOMALY":84.5926,"EPHEMERIS_TYPE":0,"CLASSIFICATION_TYPE":"U","NORAD_CAT_ID":59605,"ELEMENT_SET_NO":999,"REV_AT_EPOCH":10412,"BSTAR":4.9923e-5,"MEAN_MOTION_DOT":1.111e-5,"MEAN_MOTION_DDOT":0},{"OBJECT_NAME":"STARLINK-31782","OBJECT_ID":"2024-080F","EPOCH":"2026-03-07T01:05:21.278688","MEAN_MOTION":15.27573208,"ECCENTRICITY":0.0001199,"INCLINATION":43.0022,"RA_OF_ASC_NODE":56.6921,"ARG_OF_PERICENTER":274.9772,"MEAN_ANOMALY":85.0943,"EPHEMERIS_TYPE":0,"CLASSIFICATION_TYPE":"U","NORAD_CAT_ID":59606,"ELEMENT_SET_NO":999,"REV_AT_EPOCH":10408,"BSTAR":5.8363e-5,"MEAN_MOTION_DOT":1.344e-5,"MEAN_MOTION_DDOT":0}]
